#dP2025  1 17  6  0  0.00000000      96 __u+U IGS20 EXT  IAC
## 2349 453600.00000000   900.00000000 60692 0.2500000000000
+   53   G01G02G03G04G05G06G07G08G09G10G11G12G13G14G15G16G17
+        G18G19G20G21G22G23G24G25G26G27G28G29G30G31G32R01R02
+        R03R04R05R07R08R09R11R12R14R15R16R17R18R19R20R21R22
+        R24R26  0  0  0  0  0  0  0  0  0  0  0  0  0  0  0
+          0  0  0  0  0  0  0  0  0  0  0  0  0  0  0  0  0
++        10  8  8  8  8  8  9  8  8  7  7  8  8  9  8  8  8
++         8  8  8  7  8  8  8  8  9  7  8  9  8  8  8  8  9
++         9 10 10  9  9  9  9  9  7  9  9  9  7  8  8  8  8
++         8  0  0  0  0  0  0  0  0  0  0  0  0  0  0  0  0
++         0  0  0  0  0  0  0  0  0  0  0  0  0  0  0  0  0
%c M  cc GPS ccc cccc cccc cccc cccc ccccc ccccc ccccc ccccc
%c cc cc ccc ccc cccc cccc cccc cccc ccccc ccccc ccccc ccccc
%f  0.0000000  0.000000000  0.00000000000  0.000000000000000
%f  0.0000000  0.000000000  0.00000000000  0.000000000000000
%i    0    0    0    0      0      0      0      0         0
%i    0    0    0    0      0      0      0      0         0
/* IAC                                ULTRA-RAPID PREDICTION
/* S/V CLOCKS ARE ALIGNED TO GNSS TIME                      
/* G:C1WC2W R:C1PC2P E:C1XC5X C:C2IC6I J:C1CC2S             
/* PCV:IGS20_2317 OL/AL:FES2004  NONE     YN ORB:CoN CLK:CoN
*  2025 01 17 10 30  0.00000000
PG01 -15161.188770   1696.268871  21749.143862     55.340565
PG02 -15965.290318   -276.382014  21744.064479   -265.765687
PG03 -21573.291727  10163.497340  11405.010959    647.667617
PG04 -23710.221484   1023.018115 -12062.465908    513.280392
PG05  16571.641528   2931.201280 -20739.143626   -199.277699
PG06   5628.304876  25883.516181    501.151773   -124.515808
PG07  -8717.314023  17093.785560 -17631.665536    -13.456778
PG08 -26173.288912  -5724.244613    941.353219    462.621822
PG09 -17269.311779   8740.312489 -18311.476258    532.077684
PG10   5303.634938 -20156.911110  16494.891583   -280.457757
PG11  12025.399692  20947.580592 -11070.722791   -751.442414
PG12  21982.641277  -6538.744513  13068.965109   -564.960730
PG13  22016.211521  14096.852700  -5611.012980    693.744660
PG14  -8845.118838  21198.501958  13172.610797    581.604110
PG15  26478.948167   2546.902502    867.918740    252.656033
PG16 -12759.587287  -9279.109788 -21771.263904    -75.735429
PG17  -1860.607870  15425.853197  21929.119787    470.242582
PG18   7326.623041 -19082.391441 -16802.803140   -657.542797
PG19   9806.153594  17214.572118  17759.515475    587.223394
PG20   8189.693738  13969.242335 -20986.697586    367.004821
PG21 -17203.254988  -8386.281229  19226.143929    101.216355
PG22  -2461.294853  19001.945635  18904.524826    -92.734407
PG23  16432.134528 -20358.418575   3829.278807    405.565843
PG24  16733.489928   2669.771172  20068.592580   -463.010189
PG25  19714.379942 -17359.653490   2423.793028    496.606233
PG26  -4517.314787 -17270.961981 -19740.839506    -51.796262
PG27 -21453.550950 -12980.736789  -9710.782852    -32.934665
PG28  -5483.158310 -25865.168258   2508.424390   -537.551334
PG29  17809.238495  -6995.498848 -18520.154789   -546.341532
PG30   -599.978914  24773.655348  -9027.403010   -237.222209
PG31 -10353.841619 -23293.297939  -7003.133479   -217.678054
PG32  -4461.605669 -16223.620138  20830.959642   -539.983525
PR01  17779.729485   6309.875945 -17168.816871    111.543551
PR02  25399.809691   -806.828909  -1666.668553    -38.386309
PR03  18678.823346  -8463.878697  15177.121316    115.067511
PR04   2225.099147 -10758.787014  23051.317705    272.891977
PR05 -15545.108804  -7706.899577  18722.814242    143.877046
PR07 -18582.610299   8474.952792 -15274.043227     99.042135
PR08  -1876.219124  10854.705769 -22945.599548     -6.371391
PR09 -13553.630642   4912.160824 -21008.180500    232.609149
PR11  -7461.951125  23428.780656   6760.417512     -1.420321
PR12   4997.281303  13238.911851  21242.491950     49.701750
PR14  13854.571063 -19471.332574   8952.296230     27.606065
PR15   6526.122281 -23160.205547  -8465.302092     72.111972
PR16  -4794.833552 -13316.712814 -21228.049635     32.524510
PR17   6201.936010  -9560.702867 -22804.220335    158.273277
PR18  -5483.582669 -20349.841708 -14388.674550    182.350131
PR19 -13034.343120 -21919.365960   -562.593275   -305.825832
PR20 -15088.119825  -8831.325905  18607.581069   -124.655381
PR21  -7048.216813   8372.874625  23047.034976   -168.917021
PR22   5649.613119  21020.849264  13318.106780    -56.388454
PR24  15685.896423   7406.727498 -18685.744334    -88.550750
PR26  -3950.550954  10906.620249 -22692.508888   -131.724190
*  2025 01 17 10 45  0.00000000
PG01 -15624.047034   -731.964998  21474.184213     55.367583
PG02 -16759.629473  -2478.984337  21012.493162   -265.757416
PG03 -20658.253927   9007.370881  13796.684539    647.674126
PG04 -24841.965658    490.570925  -9578.693596    513.285635
PG05  15041.126959   4752.637557 -21553.207690   -199.278654
PG06   5396.931632  25721.591737   3408.771758   -124.539751
PG07  -9495.818333  15009.004514 -19068.093834    -13.456605
PG08 -26084.504089  -5961.789505  -1865.046196    462.628701
PG09 -19168.315331   8163.733131 -16605.986632    532.091051
PG10   6619.071781 -21299.522436  14393.073402   -280.472069
PG11  12076.651668  22089.903024  -8513.204806   -751.441391
PG12  20879.756168  -5274.112843  15227.340998   -564.962699
PG13  21239.048169  13979.347066  -8329.907982    693.745729
PG14 -10012.025689  21978.008318  10822.456533    581.610534
PG15  26446.596455   2853.737990  -1933.230709    252.660087
PG16 -10928.402243 -10869.216036 -21994.584821    -75.726983
PG17  -4186.848018  14714.338434  22118.229624    470.226740
PG18   7982.192671 -17154.842738 -18513.139772   -657.541482
PG19   7769.224401  16587.857570  19249.180936    587.227459
PG20   6808.053391  15893.848538 -20107.548957    367.004554
PG21 -17863.542682 -10285.699845  17705.550793    101.217046
PG22  -4050.716074  20210.196505  17302.962679    -92.736165
PG23  16768.499090 -20414.107858    934.255427    405.572570
PG24  17489.517995   4876.442014  19042.125299   -463.006477
PG25  19612.711240 -16796.119477   5225.168314    496.605699
PG26  -3016.178294 -18852.428122 -18495.501677    -51.810205
PG27 -20246.129750 -12884.720513 -12158.813096    -32.934248
PG28  -5108.655028 -25512.791194   5318.880342   -537.559885
PG29  19673.614417  -6236.910821 -16833.899920   -546.338452
PG30  -1230.786947  23699.292736 -11496.312859   -237.214596
PG31 -10231.073378 -23968.181788  -4237.858539   -217.677261
PG32  -2142.940825 -15718.457574  21563.040378   -539.977088
PR01  15546.181598   6519.801666 -19143.152660    111.544787
PR02  24975.235409   -937.346450  -4864.900552    -38.385907
PR03  20363.716476  -8776.149358  12600.842370    115.068126
PR04   5012.303841 -11056.348895  22463.194876    272.893235
PR05 -13131.310755  -7827.407358  20441.347053    143.877632
PR07 -20292.570262   8790.997503 -12716.865708     99.042821
PR08  -4671.682940  11177.520208 -22389.827084     -6.371338
PR09 -12540.409193   2452.718472 -22049.149083    232.611252
PR11  -7587.498031  24072.558073   3631.970147     -1.422908
PR12   4040.023854  15579.851150  19809.988463     49.702170
PR14  13258.309186 -18335.318888  11800.247071     27.606191
PR15   6758.464859 -23994.560166  -5413.620475     72.111708
PR16  -3853.288982 -15665.283663 -19769.448681     32.524799
PR17   7847.516281  -7244.403499 -23150.984456    158.276536
PR18  -4501.708434 -18684.496659 -16781.223757    182.351897
PR19 -13067.118010 -21575.575000  -3792.301279   -305.827110
PR20 -16390.540369 -10565.871219  16482.361027   -124.655977
PR21  -8686.429369   6033.033027  23216.585931   -168.919875
PR22   4745.643746  19469.235483  15804.169730    -56.390087
PR24  17044.268705   9118.364886 -16629.493258    -88.552108
PR26  -6685.656530  11253.265235 -21866.618557   -131.723779
EOF
